[{"OBJECT_NAME":"STARLINK-30877","OBJECT_ID":"2023-171N","EPOCH":"2026-03-09T22:00:01.999584","MEAN_MOTION":15.26244967,"ECCENTRICITY":0.00015645,"INCLINATION":43.0015,"RA_OF_ASC_NODE":283.7231,"ARG_OF_PERICENTER":283.3438,"MEAN_ANOMALY":10.2725,"EPHEMERIS_TYPE":0,"CLASSIFICATION_TYPE":"U","NORAD_CAT_ID":58242,"ELEMENT_SET_NO":999,"REV_AT_EPOCH":572,"BSTAR":0.024263331,"MEAN_MOTION_DOT":0.00685806,"MEAN_MOTION_DDOT":0},{"OBJECT_NAME":"GHOST-4","OBJECT_ID":"2024-043AM","EPOCH":"2026-03-09T21:24:02.467008","MEAN_MOTION":15.40436625,"ECCENTRICITY":0.00084177,"INCLINATION":97.5443,"RA_OF_ASC_NODE":210.3538,"ARG_OF_PERICENTER":209.2887,"MEAN_ANOMALY":150.7888,"EPHEMERIS_TYPE":0,"CLASSIFICATION_TYPE":"U","NORAD_CAT_ID":59133,"ELEMENT_SET_NO":999,"REV_AT_EPOCH":11223,"BSTAR":0.00046285674,"MEAN_MOTION_DOT":0.00018691,"MEAN_MOTION_DDOT":0}]
